BEIDOU-2 IGSO-1 (C06)   
1 36828U 10036A   25098.62865375 -.00000123  00000+0  00000+0 0  9998
2 36828  54.2653 166.8885 0048647 215.5862 145.2152  1.00297383 53746
BEIDOU-2 G4 (C04)       
1 37210U 10057A   25099.56806977 -.00000120  00000+0  00000+0 0  9991
2 37210   2.5718  70.4396 0005967 207.6014 284.4716  1.00271197 52944
BEIDOU-2 IGSO-2 (C07)   
1 37256U 10068A   25099.41489970 -.00000197  00000+0  00000+0 0  9991
2 37256  48.3333 277.1859 0039948 210.5748 326.2202  1.00257567 52443
BEIDOU-2 IGSO-3 (C08)   
1 37384U 11013A   25099.51448868 -.00000192  00000+0  00000+0 0  9991
2 37384  61.7948  44.2622 0029905 182.3978 264.7722  1.00283840 51311
BEIDOU-2 IGSO-4 (C09)   
1 37763U 11038A   25082.70190369 -.00000060  00000+0  00000+0 0  9996
2 37763  54.5715 169.7029 0137042 229.6463 126.0160  1.00250470 50121
BEIDOU-2 IGSO-5 (C10)   
1 37948U 11073A   25097.95262383 -.00000181  00000+0  00000+0 0  9993
2 37948  48.4721 276.9055 0101934 219.1132 138.9987  1.00264635 49038
BEIDOU-2 G5 (C05)       
1 38091U 12008A   25099.54800042  .00000050  00000+0  00000+0 0  9993
2 38091   2.4939  71.2430 0012147 259.8855 122.8750  1.00271087 48029
BEIDOU-2 M3 (C11)       
1 38250U 12018A   25098.79251473 -.00000064  00000+0  00000+0 0  9991
2 38250  56.1204 319.4731 0020907 272.8390  86.9637  1.86233779 87858
BEIDOU-2 M4 (C12)       
1 38251U 12018B   25098.72407149 -.00000063  00000+0  00000+0 0  9997
2 38251  56.0251 318.7244 0011889 278.7958  81.1108  1.86232189 87848
BEIDOU-2 M6 (C14)       
1 38775U 12050B   25098.97095904  .00000005  00000+0  00000+0 0  9998
2 38775  56.1636  77.2940 0014614 338.2342  21.6933  1.86231084 85223
BEIDOU-2 G6 (C02)       
1 38953U 12059A   25099.59648517 -.00000181  00000+0  00000+0 0  9994
2 38953   3.3192  77.9515 0010578 307.3063 111.5328  1.00269780 45569
BEIDOU-3S IGSO-1S (C31) 
1 40549U 15019A   25099.54330831 -.00000148  00000+0  00000+0 0  9992
2 40549  50.0145 300.6649 0037482 190.9834 354.4673  1.00293072 36729
BEIDOU-3S M2S (C58)     
1 40748U 15037A   25098.92645464 -.00000063  00000+0  00000+0 0  9991
2 40748  55.2480 316.9520 0008153 267.2796  92.6662  1.86229231 66031
BEIDOU-3S M1S (C57)     
1 40749U 15037B   25099.18940643 -.00000063  00000+0  00000+0 0  9998
2 40749  55.2439 316.9358 0004283  20.1235 339.9326  1.86253892 66022
BEIDOU-3S IGSO-2S (C56) 
1 40938U 15053A   25099.43177837 -.00000145  00000+0  00000+0 0  9992
2 40938  49.8962 263.9220 0057008 186.2850 358.7265  1.00283517 35009
BEIDOU-2 IGSO-6 (C13)   
1 41434U 16021A   25099.61122961 -.00000157  00000+0  00000+0 0  9991
2 41434  59.6168  42.3641 0052597 230.3227 239.0707  1.00258086 33138
BEIDOU-2 G7 (C03)       
1 41586U 16037A   25099.51780837 -.00000361  00000+0  00000+0 0  9994
2 41586   1.5981  67.9650 0010648 337.3839  89.5321  1.00267645  2548
BEIDOU-3 M1 (C19)       
1 43001U 17069A   25099.27364713  .00000004  00000+0  00000+0 0  9991
2 43001  56.3134  77.4184 0012527 308.7079  51.1689  1.86231408 50529
BEIDOU-3 M2 (C20)       
1 43002U 17069B   25099.21146058  .00000004  00000+0  00000+0 0  9996
2 43002  56.3122  77.4567 0010199 327.7185  32.2081  1.86230938 50516
BEIDOU-3 M7 (C27)       
1 43107U 18003A   25098.95788477 -.00000065  00000+0  00000+0 0  9996
2 43107  54.7061 317.4117 0004962  69.7668 290.3254  1.86232561 49267
BEIDOU-3 M8 (C28)       
1 43108U 18003B   25098.90074563 -.00000065  00000+0  00000+0 0  9996
2 43108  54.6992 317.3978 0002676 283.1930  76.8159  1.86231049 49270
BEIDOU-3 M4 (C22)       
1 43207U 18018A   25099.34181559  .00000004  00000+0  00000+0 0  9997
2 43207  56.2723  77.4950 0007461 348.1376  11.8336  1.86231324 48661
BEIDOU-3 M3 (C21)       
1 43208U 18018B   25098.33443345  .00000009  00000+0  00000+0 0  9995
2 43208  56.2709  77.5325 0010221 318.4263  41.4876  1.86231312 48649
BEIDOU-3 M9 (C29)       
1 43245U 18029A   25099.09002182 -.00000062  00000+0  00000+0 0  9992
2 43245  54.5805 315.0851 0000753  34.4596 325.5820  1.86232854 47810
BEIDOU-3 M10 (C30)      
1 43246U 18029B   25099.02137063 -.00000062  00000+0  00000+0 0  9993
2 43246  54.5782 315.1153 0004878  22.6259 337.4325  1.86229122 47791
BEIDOU-2 IGSO-7 (C16)   
1 43539U 18057A   25098.82663097 -.00000134  00000+0  00000+0 0  9997
2 43539  55.1567 166.8230 0087417 235.7847 205.5705  1.00278306 24775
BEIDOU-3 M5 (C23)       
1 43581U 18062A   25098.70979287 -.00000046  00000+0  00000+0 0  9990
2 43581  54.1031 197.0764 0003148 283.8443  76.1267  1.86228775 45542
BEIDOU-3 M6 (C24)       
1 43582U 18062B   25098.03720211 -.00000051  00000+0  00000+0 0  9994
2 43582  54.1030 197.0884 0005002  31.1904 328.8436  1.86229510 45534
BEIDOU-3 M12 (C26)      
1 43602U 18067A   25099.58325552 -.00000035  00000+0  00000+0 0  9994
2 43602  54.1957 195.7447 0007512  31.3521 328.7048  1.86227907 45042
BEIDOU-3 M11 (C25)      
1 43603U 18067B   25097.03230388 -.00000052  00000+0  00000+0 0  9994
2 43603  54.1933 195.7955 0004191  22.5044 337.5204  1.86227322 45024
BEIDOU-3 M13 (C32)      
1 43622U 18072A   25099.13947318  .00000003  00000+0  00000+0 0  9997
2 43622  56.2441  77.0249 0009023 307.6208  52.2861  1.86231327 44577
BEIDOU-3 M14 (C33)      
1 43623U 18072B   25099.00495613  .00000004  00000+0  00000+0 0  9991
2 43623  56.2458  77.0228 0006790 328.5770  31.3717  1.86231314 44560
BEIDOU-3 M16 (C35)      
1 43647U 18078A   25098.09163328 -.00000061  00000+0  00000+0 0  9990
2 43647  54.4778 315.1943 0008139  27.0427 333.0362  1.86232346 44058
BEIDOU-3 M15 (C34)      
1 43648U 18078B   25098.75782534 -.00000062  00000+0  00000+0 0  9991
2 43648  54.4729 315.1729 0005179  36.9675 323.1049  1.86232323 44082
BEIDOU-3 G1 (C59)       
1 43683U 18085A   25099.56407326 -.00000285  00000+0  00000+0 0  9998
2 43683   2.9340  99.8472 0003298 355.2745  86.0156  1.00269576 23711
BEIDOU-3 M17 (C36)      
1 43706U 18093A   25099.44916848 -.00000038  00000+0  00000+0 0  9990
2 43706  54.1865 197.0115 0008119 286.7744  73.1454  1.86228490 43463
BEIDOU-3 M18 (C37)      
1 43707U 18093B   25099.31211821 -.00000040  00000+0  00000+0 0  9999
2 43707  54.1872 197.0080 0006430 321.1285  38.8336  1.86229916 43451
BEIDOU-3 IGSO-1 (C38)   
1 44204U 19023A   25099.45862108 -.00000223  00000+0  00000+0 0  9994
2 44204  58.0828  42.1310 0021442 227.7456 212.1593  1.00266341  2866
BEIDOU-2 G8 (C01)       
1 44231U 19027A   25099.56494207 -.00000257  00000+0  00000+0 0  9998
2 44231   1.5188  74.7486 0005330 257.0291 214.0794  1.00267882 21736
BEIDOU-3 IGSO-2 (C39)   
1 44337U 19035A   25096.76695306 -.00000147  00000+0  00000+0 0  9994
2 44337  55.1985 162.6933 0035474 208.0552 218.4421  1.00293482 21296
BEIDOU-3 M24 (C46)      
1 44542U 19061A   25099.38276518 -.00000039  00000+0  00000+0 0  9992
2 44542  54.4144 197.3589 0007617   4.8234 355.1917  1.86229070 37711
BEIDOU-3 M23 (C45)      
1 44543U 19061B   25099.53001321 -.00000038  00000+0  00000+0 0  9997
2 44543  54.4127 197.3226 0004525 351.1217  20.3095  1.86229346 37720
BEIDOU-3 IGSO-3 (C40)   
1 44709U 19073A   25098.91199108 -.00000169  00000+0  00000+0 0  9991
2 44709  55.5454 285.5732 0042841 181.6515 178.2966  1.00266475 20105
BEIDOU-3 M22 (C44)      
1 44793U 19078A   25099.22587118 -.00000064  00000+0  00000+0 0  9990
2 44793  54.3240 315.0505 0007136  33.9623 326.1199  1.86232164 36563
BEIDOU-3 M21 (C43)      
1 44794U 19078B   25098.82079485 -.00000063  00000+0  00000+0 0  9998
2 44794  54.2977 315.0345 0005142  30.4177 329.6485  1.86227841 36565
BEIDOU-3 M19 (C41)      
1 44864U 19090A   25099.33832468  .00000002  00000+0  00000+0 0  9997
2 44864  56.1788  77.1727 0020034 288.8031 251.4679  1.86231710 36151
BEIDOU-3 M20 (C42)      
1 44865U 19090B   25099.08890825  .00000004  00000+0  00000+0 0  9993
2 44865  56.1802  77.2147 0017756 300.7804 161.9419  1.86231611 36130
BEIDOU-3 G2 (C60)       
1 45344U 20017A   25099.55217067 -.00000149  00000+0  00000+0 0  9991
2 45344   2.7568  38.9080 0002983 329.9967 107.9474  1.00271916 18913
BEIDOU-3 G3 (C61)       
1 45807U 20040A   25099.51780837 -.00000362  00000+0  00000+0 0  9994
2 45807   1.4017  62.2238 0002986 322.9862 109.7148  1.00269079 17720
BEIDOU-3 G4 (C62)       
1 56564U 23066A   25099.53655939 -.00000125  00000+0  00000+0 0  9990
2 56564   1.3899 290.9795 0002351 200.8135  59.3084  1.00270766  7048
BEIDOU-3 M28 (C50)      
1 58654U 23207A   25099.43813716 -.00000001  00000+0  00000+0 0  9990
2 58654  55.3662  76.9800 0004897 303.2762  56.6652  1.86232129  8763
BEIDOU-3 M26 (C48)      
1 58655U 23207B   25099.23784356  .00000001  00000+0  00000+0 0  9995
2 58655  55.3680  76.9727 0005441 287.9579  71.9718  1.86231654  8745
BEIDOU-3 M25 (C47)      
1 61186U 24168B   25099.34387534 -.00000065  00000+0  00000+0 0  9995
2 61186  54.8508 317.2736 0003906 309.7972 239.3423  1.86230293  3708
BEIDOU-3 M27 (C49)      
1 61187U 24168C   25099.16659422 -.00000065  00000+0  00000+0 0  9994
2 61187  54.8465 317.2643 0002699  21.1470 184.0000  1.86230422  1174
